IRIDIUM 57              
1 25273U 98019B   24301.60131978  .00001803  00000+0  62021-3 0  9996
2 25273  86.3961 242.6206 0002356  84.7149 275.4316 14.35517877391419
IRIDIUM 63              
1 25286U 98021B   24301.57193862  .00001499  00000+0  50823-3 0  9997
2 25286  86.4043 179.6236 0001997  78.1341 282.0080 14.36126464390452
IRIDIUM 69              
1 25319U 98026A   24301.45752451  .00002103  00000+0  65601-3 0  9994
2 25319  86.4043 193.6394 0004539  75.2424 284.9278 14.40441791389552
IRIDIUM 71              
1 25320U 98026B   24301.42994112  .00001590  00000+0  49196-3 0  9995
2 25320  86.4041 188.3924 0003872 108.1865 251.9756 14.40703149390078
IRIDIUM 73              
1 25344U 98032C   24301.52192827  .00002099  00000+0  52552-3 0  9997
2 25344  86.4420 145.5994 0002723  79.0008 281.1503 14.51041415396812
IRIDIUM 82              
1 25467U 98051A   24301.52630352  .00042991  00000+0  18166-2 0  9991
2 25467  86.3762 222.6703 0117402  91.1709 270.2985 15.16904948388506
